JILIN-1 03              
1 41914U 17002B   26200.60314054  .00007314  00000+0  17172-3 0  9997
2 41914  97.1956 207.2479 0007625  67.7399 292.4657 15.42299529526859
CARTOSAT-2D             
1 41948U 17008A   26200.62915997  .00003174  00000+0  15353-3 0  9994
2 41948  97.4084 259.3261 0006279 126.5690 233.6123 15.19306053522508
CARTOSAT-2E             
1 42767U 17036C   26200.64701444  .00001743  00000+0  85862-4 0  9990
2 42767  97.4250 259.9112 0003681 172.7809 187.3479 15.19271675503074
IRIDIUM 113             
1 42803U 17039A   26200.33387930  .00000056  00000+0  12857-4 0  9990
2 42803  86.3992 308.7436 0002127  92.8850 267.2590 14.34217691475792
NORSAT 2                
1 42828U 17042D   26200.43523312  .00005501  00000+0  24045-3 0  9999
2 42828  97.4065  13.3807 0007997 300.8668  59.1782 15.22473439492649
TECHNOSAT               
1 42829U 17042E   26200.42789739  .00001246  00000+0  91427-4 0  9997
2 42829  97.4324 356.8685 0017021 349.5858  10.5014 15.05123837491550
FLYING LAPTOP           
1 42831U 17042G   26200.64559456  .00002014  00000+0  16035-3 0  9990
2 42831  97.4833 354.9616 0019459  18.4043 341.7881 15.01330532491320
WNISAT 1R               
1 42835U 17042L   26200.40629325  .00000306  00000+0  27859-4 0  9990
2 42835  97.4816 355.3772 0010297  51.1938 309.0205 15.01862049491343
LEMUR-2-GREENBERG       
1 42837U 17042N   26200.48787179  .00008759  00000+0  28370-3 0  9990
2 42837  97.3839  20.9886 0007431 241.5042 118.5452 15.32233564493333
LEMUR-2-FURIAUS         
1 42840U 17042R   26200.43830536  .00009277  00000+0  31005-3 0  9990
2 42840  97.3788  18.8215 0005723 311.1861  48.8887 15.31212862493140
CORVUS BC2              
1 42846U 17042X   26200.41128916  .00001310  00000+0  92685-4 0  9998
2 42846  97.4095   0.5175 0013016   8.6130 351.5319 15.06467590491911
CORVUS BC1              
1 42847U 17042Y   26200.40236116  .00001804  00000+0  12561-3 0  9992
2 42847  97.4127   1.3439 0011225 344.9562  15.1331 15.06633122491941
VRSS-2                  
1 42954U 17060A   26200.61266959  .00000899  00000+0  12155-3 0  9994
2 42954  97.6494 236.8775 0017050 359.5752   0.5444 14.81243833473257
MOHAMMED VI-A           
1 43005U 17070A   26200.59148977  .00000496  00000+0  77436-4 0  9996
2 43005  97.9542 272.4747 0001278  99.5875 260.5479 14.77106614468765
FENGYUN 3D              
1 43010U 17072A   26200.56569079 -.00000022  00000+0  11522-4 0  9991
2 43010  99.0152 175.5767 0001280   5.5831 354.5359 14.19744494449588
NOAA 20 (JPSS-1)        
1 43013U 17073A   26200.56597847  .00000025  00000+0  32631-4 0  9995
2 43013  98.7772 139.7419 0001540 119.8594 240.2736 14.19516967449060
MAKERSAT 0              
1 43016U 17073D   26199.58482991  .00010616  00000+0  27996-3 0  9994
2 43016  97.4572  82.3624 0105621 160.2361 200.3022 15.33085965471274
RADFXSAT (FOX-1B)       
1 43017U 17073E   26200.61611449  .00003138  00000+0  13857-3 0  9996
2 43017  97.4661  67.1701 0148412 216.0599 143.0552 15.13095443470291
JILIN-1 04              
1 43022U 17074A   26200.57974478  .00007831  00000+0  17846-3 0  9998
2 43022  97.4876 311.0782 0005197  89.0186 271.1657 15.43202564479269
JILIN-1 05              
1 43023U 17074B   26200.60380236  .00004368  00000+0  13384-3 0  9991
2 43023  97.4880 307.2101 0006592 112.6825 247.5115 15.34324825478978
JILIN-1 06              
1 43024U 17074C   26200.58055321  .00003415  00000+0  10614-3 0  9998
2 43024  97.4804 304.1522 0008316 121.2419 238.9639 15.34026347478804
IRIDIUM 116             
1 43072U 17083C   26200.58758353  .00000122  00000+0  36446-4 0  9990
2 43072  86.3986 308.4578 0002502  97.9394 262.2086 14.34216916448811
IRIDIUM 130             
1 43073U 17083D   26200.34656536  .00000135  00000+0  41285-4 0  9996
2 43073  86.3994 308.8369 0002350 100.3677 259.7784 14.34218869448722
LKW-2                   
1 43080U 17084A   26200.60672769  .00003896  00000+0  15087-3 0  9997
2 43080  97.1173 238.8929 0003926 111.7752 248.3906 15.26723344476635
SUPERVIEW-1 03          
1 43099U 18002A   26200.59330262  .00009627  00000+0  23195-3 0  9992
2 43099  97.3122 285.4038 0046615  65.7000 294.9105 15.40306696473353
CARTOSAT-2F             
1 43111U 18004A   26200.61391655  .00002304  00000+0  11277-3 0  9998
2 43111  97.4766 259.9287 0002581 125.1302 235.0174 15.19193666472252
LKW-3                   
1 43146U 18006A   26200.63655376  .00004733  00000+0  13837-3 0  9995
2 43146  97.6649   2.4972 0003399 165.3088 194.8254 15.35802092473697
ASNARO-2                
1 43152U 18007A   26199.80097471  .00004345  00000+0  19097-3 0  9998
2 43152  97.3977 206.2346 0001746  91.4374 268.7062 15.22420244472222
