OBJECT_NAME,OBJECT_ID,EPOCH,MEAN_MOTION,ECCENTRICITY,INCLINATION,RA_OF_ASC_NODE,ARG_OF_PERICENTER,MEAN_ANOMALY,EPHEMERIS_TYPE,CLASSIFICATION_TYPE,NORAD_CAT_ID,ELEMENT_SET_NO,REV_AT_EPOCH,BSTAR,MEAN_MOTION_DOT,MEAN_MOTION_DDOT
JILIN-1 03,2017-002B,2026-07-19T14:28:31.342656,15.42299529,.00076259,97.1956,207.2479,67.7399,292.4657,0,U,41914,999,52685,.17171523E-3,.7314E-4,0
CARTOSAT-2D,2017-008A,2026-07-19T15:05:59.421408,15.19306053,.00062795,97.4084,259.3261,126.5690,233.6123,0,U,41948,999,52250,.15352886E-3,.3174E-4,0
CARTOSAT-2E,2017-036C,2026-07-19T15:31:42.047616,15.19271675,.00036812,97.4250,259.9112,172.7809,187.3479,0,U,42767,999,50307,.85862071E-4,.1743E-4,0
IRIDIUM 113,2017-039A,2026-07-19T08:00:47.171520,14.34217691,.0002127,86.3992,308.7436,92.8850,267.2590,0,U,42803,999,47579,.12857482E-4,.56E-6,0
NORSAT 2,2017-042D,2026-07-19T10:26:44.141568,15.22473439,.00079974,97.4065,13.3807,300.8668,59.1782,0,U,42828,999,49264,.24045301E-3,.5501E-4,0
TECHNOSAT,2017-042E,2026-07-19T10:16:10.334496,15.05123837,.00170216,97.4324,356.8685,349.5858,10.5014,0,U,42829,999,49155,.91426722E-4,.1246E-4,0
FLYING LAPTOP,2017-042G,2026-07-19T15:29:39.369984,15.01330532,.00194592,97.4833,354.9616,18.4043,341.7881,0,U,42831,999,49132,.16034694E-3,.2014E-4,0
WNISAT 1R,2017-042L,2026-07-19T09:45:03.736800,15.01862049,.00102973,97.4816,355.3772,51.1938,309.0205,0,U,42835,999,49134,.27859475E-4,.306E-5,0
LEMUR-2-GREENBERG,2017-042N,2026-07-19T11:42:32.122656,15.32233564,.00074313,97.3839,20.9886,241.5042,118.5452,0,U,42837,999,49333,.28369999E-3,.8759E-4,0
LEMUR-2-FURIAUS,2017-042R,2026-07-19T10:31:09.583104,15.31212862,.00057234,97.3788,18.8215,311.1861,48.8887,0,U,42840,999,49314,.31005454E-3,.9277E-4,0
CORVUS BC2,2017-042X,2026-07-19T09:52:15.383424,15.06467590,.00130162,97.4095,0.5175,8.6130,351.5319,0,U,42846,999,49191,.92685383E-4,.131E-4,0
CORVUS BC1,2017-042Y,2026-07-19T09:39:24.004224,15.06633122,.00112255,97.4127,1.3439,344.9562,15.1331,0,U,42847,999,49194,.12561482E-3,.1804E-4,0
VRSS-2,2017-060A,2026-07-19T14:42:14.652576,14.81243833,.00170503,97.6494,236.8775,359.5752,0.5444,0,U,42954,999,47325,.12155146E-3,.899E-5,0
MOHAMMED VI-A,2017-070A,2026-07-19T14:11:44.716128,14.77106614,.00012789,97.9542,272.4747,99.5875,260.5479,0,U,43005,999,46876,.77436113E-4,.496E-5,0
FENGYUN 3D,2017-072A,2026-07-19T13:34:35.684256,14.19744494,.00012806,99.0152,175.5767,5.5831,354.5359,0,U,43010,999,44958,.11521939E-4,-.22E-6,0
NOAA 20 (JPSS-1),2017-073A,2026-07-19T13:35:00.539808,14.19516967,.00015401,98.7772,139.7419,119.8594,240.2736,0,U,43013,999,44906,.3263127E-4,.25E-6,0
MAKERSAT 0,2017-073D,2026-07-18T14:02:09.304224,15.33085965,.0105621,97.4572,82.3624,160.2361,200.3022,0,U,43016,999,47127,.27996E-3,.10616E-3,0
RADFXSAT (FOX-1B),2017-073E,2026-07-19T14:47:12.291936,15.13095443,.0148412,97.4661,67.1701,216.0599,143.0552,0,U,43017,999,47029,.13857197E-3,.3138E-4,0
JILIN-1 04,2017-074A,2026-07-19T13:54:49.948992,15.43202564,.00051973,97.4876,311.0782,89.0186,271.1657,0,U,43022,999,47926,.17846219E-3,.7831E-4,0
JILIN-1 05,2017-074B,2026-07-19T14:29:28.523904,15.34324825,.00065926,97.4880,307.2101,112.6825,247.5115,0,U,43023,999,47897,.13384222E-3,.4368E-4,0
JILIN-1 06,2017-074C,2026-07-19T13:55:59.797344,15.34026347,.00083162,97.4804,304.1522,121.2419,238.9639,0,U,43024,999,47880,.10614421E-3,.3415E-4,0
IRIDIUM 116,2017-083C,2026-07-19T14:06:07.216992,14.34216916,.00025023,86.3986,308.4578,97.9394,262.2086,0,U,43072,999,44881,.36446035E-4,.122E-5,0
IRIDIUM 130,2017-083D,2026-07-19T08:19:03.247104,14.34218869,.00023509,86.3994,308.8369,100.3677,259.7784,0,U,43073,999,44872,.41285187E-4,.135E-5,0
LKW-2,2017-084A,2026-07-19T14:33:41.272416,15.26723344,.00039263,97.1173,238.8929,111.7752,248.3906,0,U,43080,999,47663,.15087149E-3,.3896E-4,0
SUPERVIEW-1 03,2018-002A,2026-07-19T14:14:21.346368,15.40306696,.00466159,97.3122,285.4038,65.7000,294.9105,0,U,43099,999,47335,.23195025E-3,.9627E-4,0
CARTOSAT-2F,2018-004A,2026-07-19T14:44:02.389920,15.19193666,.00025812,97.4766,259.9287,125.1302,235.0174,0,U,43111,999,47225,.11276613E-3,.2304E-4,0
LKW-3,2018-006A,2026-07-19T15:16:38.244864,15.35802092,.00033998,97.6649,2.4972,165.3088,194.8254,0,U,43146,999,47369,.13837296E-3,.4733E-4,0
ASNARO-2,2018-007A,2026-07-18T19:13:24.214944,15.22420244,.00017464,97.3977,206.2346,91.4374,268.7062,0,U,43152,999,47222,.19096784E-3,.4345E-4,0
